{"type": "FeatureCollection", "features": [ {"type": "Feature", "properties": {"norad_id": 44804, "name": "CARTOSAT-3", "group": "resource", "lat": 35.19110405456678, "lon": -114.02522520330538, "alt_km": 508.48127882968674, "timestamp": "2025-12-27T06:41:30.556375+00:00", "meta": {"OBJECT_NAME": "CARTOSAT-3", "OBJECT_ID": "2019-081A", "EPOCH": "2025-12-26T23:44:12.058080", "MEAN_MOTION": 15.19272329, "ECCENTRICITY": 0.00134607, "INCLINATION": 97.456, "RA_OF_ASC_NODE": 60.3897, "ARG_OF_PERICENTER": 38.1485, "MEAN_ANOMALY": 322.07, "EPHEMERIS_TYPE": 0, "CLASSIFICATION_TYPE": "U", "NORAD_CAT_ID": 44804, "ELEMENT_SET_NO": 999, "REV_AT_EPOCH": 33732, "BSTAR": 0.00023330404, "MEAN_MOTION_DOT": 4.863e-05, "MEAN_MOTION_DDOT": 0}, "tle": {"line1": "1 44804U 19081A   25360.98902845  .00004863  00000+0  23330-3 0  9994", "line2": "2 44804  97.4560  60.3897 0013460  38.1485 322.0700 15.19272329337322"}}, "geometry": {"type": "Point", "coordinates": [-114.02522520330538, 35.19110405456678]}}, {"type": "Feature", "properties": {"norad_id": 44819, "name": "GAOFEN-12 01", "group": "resource", "lat": 33.23144620148293, "lon": 2.0172840457052197, "alt_km": 626.4081185178129, "timestamp": "2025-12-27T06:41:30.556385+00:00", "meta": {"OBJECT_NAME": "GAOFEN-12 01", "OBJECT_ID": "2019-082A", "EPOCH": "2025-12-27T00:03:11.069280", "MEAN_MOTION": 14.80674105, "ECCENTRICITY": 0.00023506, "INCLINATION": 97.8125, "RA_OF_ASC_NODE": 6.9088, "ARG_OF_PERICENTER": 172.8839, "MEAN_ANOMALY": 187.2408, "EPHEMERIS_TYPE": 0, "CLASSIFICATION_TYPE": "U", "NORAD_CAT_ID": 44819, "ELEMENT_SET_NO": 999, "REV_AT_EPOCH": 32861, "BSTAR": 8.6070174e-05, "MEAN_MOTION_DOT": 6.11e-06, "MEAN_MOTION_DDOT": 0}, "tle": {"line1": "1 44819U 19082A   25361.00221145  .00000611  00000+0  86070-4 0  9990", "line2": "2 44819  97.8125   6.9088 0002350 172.8839 187.2408 14.80674105328615"}}, "geometry": {"type": "Point", "coordinates": [2.0172840457052197, 33.23144620148293]}}, {"type": "Feature", "properties": {"norad_id": 44873, "name": "CSG-1", "group": "resource", "lat": -42.19938344064908, "lon": -4.830810901739242, "alt_km": 629.8968253213316, "timestamp": "2025-12-27T06:41:30.556396+00:00", "meta": {"OBJECT_NAME": "CSG-1", "OBJECT_ID": "2019-092A", "EPOCH": "2025-12-26T23:12:34.782336", "MEAN_MOTION": 14.82164076, "ECCENTRICITY": 0.00014467, "INCLINATION": 97.8805, "RA_OF_ASC_NODE": 182.077, "ARG_OF_PERICENTER": 84.8201, "MEAN_ANOMALY": 275.3178, "EPHEMERIS_TYPE": 0, "CLASSIFICATION_TYPE": "U", "NORAD_CAT_ID": 44873, "ELEMENT_SET_NO": 999, "REV_AT_EPOCH": 32596, "BSTAR": 0.00010183159, "MEAN_MOTION_DOT": 7.59e-06, "MEAN_MOTION_DDOT": 0}, "tle": {"line1": "1 44873U 19092A   25360.96706924  .00000759  00000+0  10183-3 0  9992", "line2": "2 44873  97.8805 182.0770 0001446  84.8201 275.3178 14.82164076325965"}}, "geometry": {"type": "Point", "coordinates": [-4.830810901739242, -42.19938344064908]}}, {"type": "Feature", "properties": {"norad_id": 46277, "name": "NEMO-HD", "group": "resource", "lat": -8.550595170127234, "lon": -120.89978919714976, "alt_km": 448.8764641943899, "timestamp": "2025-12-27T06:41:30.556422+00:00", "meta": {"OBJECT_NAME": "NEMO-HD", "OBJECT_ID": "2020-061F", "EPOCH": "2025-12-26T23:38:27.380832", "MEAN_MOTION": 15.40623191, "ECCENTRICITY": 9.827e-05, "INCLINATION": 97.2188, "RA_OF_ASC_NODE": 59.9021, "ARG_OF_PERICENTER": 55.6274, "MEAN_ANOMALY": 304.5066, "EPHEMERIS_TYPE": 0, "CLASSIFICATION_TYPE": "U", "NORAD_CAT_ID": 46277, "ELEMENT_SET_NO": 999, "REV_AT_EPOCH": 29543, "BSTAR": 0.0003133639, "MEAN_MOTION_DOT": 0.00012685, "MEAN_MOTION_DDOT": 0}, "tle": {"line1": "1 46277U 20061F   25360.98503913  .00012685  00000+0  31336-3 0  9999", "line2": "2 46277  97.2188  59.9021 0000982  55.6274 304.5066 15.40623191295436"}}, "geometry": {"type": "Point", "coordinates": [-120.89978919714976, -8.550595170127234]}}, {"type": "Feature", "properties": {"norad_id": 46984, "name": "SENTINEL-6A", "group": "resource", "lat": 2.3734942544419697, "lon": -48.94561860413409, "alt_km": 1339.5214827691807, "timestamp": "2025-12-27T06:41:30.556436+00:00", "meta": {"OBJECT_NAME": "SENTINEL-6A", "OBJECT_ID": "2020-086A", "EPOCH": "2025-12-26T18:31:32.280096", "MEAN_MOTION": 12.80930832, "ECCENTRICITY": 0.00077578, "INCLINATION": 66.0403, "RA_OF_ASC_NODE": 133.163, "ARG_OF_PERICENTER": 269.458, "MEAN_ANOMALY": 90.5546, "EPHEMERIS_TYPE": 0, "CLASSIFICATION_TYPE": "U", "NORAD_CAT_ID": 46984, "ELEMENT_SET_NO": 999, "REV_AT_EPOCH": 23824, "BSTAR": 9.4021113e-05, "MEAN_MOTION_DOT": -3.9e-07, "MEAN_MOTION_DDOT": 0}, "tle": {"line1": "1 46984U 20086A   25360.77190139 -.00000039  00000+0  94021-4 0  9992", "line2": "2 46984  66.0403 133.1630 0007757 269.4580  90.5546 12.80930832238243"}}, "geometry": {"type": "Point", "coordinates": [-48.94561860413409, 2.3734942544419697]}}, {"type": "Feature", "properties": {"norad_id": 48079, "name": "GAOFEN-12 02", "group": "resource", "lat": 45.47239348460108, "lon": -12.989452766906329, "alt_km": 621.0045899829338, "timestamp": "2025-12-27T06:41:30.556447+00:00", "meta": {"OBJECT_NAME": "GAOFEN-12 02", "OBJECT_ID": "2021-026A", "EPOCH": "2025-12-26T23:59:50.170272", "MEAN_MOTION": 14.80692363, "ECCENTRICITY": 0.00035193, "INCLINATION": 97.9858, "RA_OF_ASC_NODE": 354.938, "ARG_OF_PERICENTER": 72.5547, "MEAN_ANOMALY": 287.605, "EPHEMERIS_TYPE": 0, "CLASSIFICATION_TYPE": "U", "NORAD_CAT_ID": 48079, "ELEMENT_SET_NO": 999, "REV_AT_EPOCH": 25628, "BSTAR": 9.0671129e-05, "MEAN_MOTION_DOT": 6.44e-06, "MEAN_MOTION_DDOT": 0}, "tle": {"line1": "1 48079U 21026A   25360.99988623  .00000644  00000+0  90671-4 0  9999", "line2": "2 48079  97.9858 354.9380 0003519  72.5547 287.6050 14.80692363256289"}}, "geometry": {"type": "Point", "coordinates": [-12.989452766906329, 45.47239348460108]}}, {"type": "Feature", "properties": {"norad_id": 48268, "name": "PLEIADES NEO 3", "group": "resource", "lat": 15.01748635675595, "lon": -104.35597049888838, "alt_km": 624.6949885252225, "timestamp": "2025-12-27T06:41:30.556458+00:00", "meta": {"OBJECT_NAME": "PLEIADES NEO 3", "OBJECT_ID": "2021-034A", "EPOCH": "2025-12-26T23:28:04.060992", "MEAN_MOTION": 14.81674037, "ECCENTRICITY": 0.00013915, "INCLINATION": 97.894, "RA_OF_ASC_NODE": 73.2142, "ARG_OF_PERICENTER": 88.9815, "MEAN_ANOMALY": 271.1557, "EPHEMERIS_TYPE": 0, "CLASSIFICATION_TYPE": "U", "NORAD_CAT_ID": 48268, "ELEMENT_SET_NO": 999, "REV_AT_EPOCH": 25215, "BSTAR": 4.9109746e-05, "MEAN_MOTION_DOT": 3.34e-06, "MEAN_MOTION_DDOT": 0}, "tle": {"line1": "1 48268U 21034A   25360.97782478  .00000334  00000+0  49110-4 0  9994", "line2": "2 48268  97.8940  73.2142 0001391  88.9815 271.1557 14.81674037252153"}}, "geometry": {"type": "Point", "coordinates": [-104.35597049888838, 15.01748635675595]}}, {"type": "Feature", "properties": {"norad_id": 49070, "name": "PLEIADES NEO 4", "group": "resource", "lat": -15.228138177425581, "lon": 75.67132949299838, "alt_km": 629.0421927850139, "timestamp": "2025-12-27T06:41:30.556468+00:00", "meta": {"OBJECT_NAME": "PLEIADES NEO 4", "OBJECT_ID": "2021-073E", "EPOCH": "2025-12-26T22:39:25.742880", "MEAN_MOTION": 14.81670688, "ECCENTRICITY": 0.00013439, "INCLINATION": 97.8941, "RA_OF_ASC_NODE": 73.1768, "ARG_OF_PERICENTER": 88.9067, "MEAN_ANOMALY": 271.23, "EPHEMERIS_TYPE": 0, "CLASSIFICATION_TYPE": "U", "NORAD_CAT_ID": 49070, "ELEMENT_SET_NO": 999, "REV_AT_EPOCH": 23586, "BSTAR": -7.5280964e-05, "MEAN_MOTION_DOT": -6.44e-06, "MEAN_MOTION_DDOT": 0}, "tle": {"line1": "1 49070U 21073E   25360.94404795 -.00000644  00000+0 -75281-4 0  9993", "line2": "2 49070  97.8941  73.1768 0001343  88.9067 271.2300 14.81670688235869"}}, "geometry": {"type": "Point", "coordinates": [75.67132949299838, -15.228138177425581]}}, {"type": "Feature", "properties": {"norad_id": 49260, "name": "LANDSAT 9", "group": "resource", "lat": 21.89261805377349, "lon": -107.49729092379415, "alt_km": 701.9529320039692, "timestamp": "2025-12-27T06:41:30.556478+00:00", "meta": {"OBJECT_NAME": "LANDSAT 9", "OBJECT_ID": "2021-088A", "EPOCH": "2025-12-26T15:08:15.498816", "MEAN_MOTION": 14.57112026, "ECCENTRICITY": 0.0001109, "INCLINATION": 98.2076, "RA_OF_ASC_NODE": 68.5392, "ARG_OF_PERICENTER": 93.7415, "MEAN_ANOMALY": 266.3911, "EPHEMERIS_TYPE": 0, "CLASSIFICATION_TYPE": "U", "NORAD_CAT_ID": 49260, "ELEMENT_SET_NO": 999, "REV_AT_EPOCH": 22587, "BSTAR": 0.00011419, "MEAN_MOTION_DOT": 4.69e-06, "MEAN_MOTION_DDOT": 0}, "tle": {"line1": "1 49260U 21088A   25360.63073494  .00000469  00000+0  11419-3 0  9999", "line2": "2 49260  98.2076  68.5392 0001109  93.7415 266.3911 14.57112026225879"}}, "geometry": {"type": "Point", "coordinates": [-107.49729092379415, 21.89261805377349]}}, {"type": "Feature", "properties": {"norad_id": 51444, "name": "CSG-2", "group": "resource", "lat": 41.94476073225299, "lon": 175.23228800985484, "alt_km": 618.3497433749098, "timestamp": "2025-12-27T06:41:30.556489+00:00", "meta": {"OBJECT_NAME": "CSG-2", "OBJECT_ID": "2022-008A", "EPOCH": "2025-12-27T00:01:12.091296", "MEAN_MOTION": 14.82159117, "ECCENTRICITY": 0.00014668, "INCLINATION": 97.8808, "RA_OF_ASC_NODE": 182.1091, "ARG_OF_PERICENTER": 83.3611, "MEAN_ANOMALY": 276.7769, "EPHEMERIS_TYPE": 0, "CLASSIFICATION_TYPE": "U", "NORAD_CAT_ID": 51444, "ELEMENT_SET_NO": 999, "REV_AT_EPOCH": 21108, "BSTAR": 0.00012306696, "MEAN_MOTION_DOT": 9.28e-06, "MEAN_MOTION_DDOT": 0}, "tle": {"line1": "1 51444U 22008A   25361.00083439  .00000928  00000+0  12307-3 0  9998", "line2": "2 51444  97.8808 182.1091 0001466  83.3611 276.7769 14.82159117211086"}}, "geometry": {"type": "Point", "coordinates": [175.23228800985484, 41.94476073225299]}}]}